NORAD_CAT_ID,OBJECT_NAME,OBJECT_TYPE,EPOCH,MEAN_MOTION,ECCENTRICITY,INCLINATION,RA_OF_ASC_NODE,ARG_OF_PERICENTER,MEAN_ANOMALY,BSTAR,MEAN_MOTION_DOT,MEAN_MOTION_DDOT,TLE_LINE0,TLE_LINE1,TLE_LINE2,SEMIMAJOR_AXIS,PERIOD,APOGEE,PERIGEE,DECAYED
228,DELTA 1 DEB (YO),DEBRIS,2022-04-11 07:32:13,15.02544752,0.0014772000000000001,48.4267,119.4293,7.1832,352.9301,0.00027984,3.514e-05,0.0,0 DELTA 1 DEB (YO),1 00228U 62002C   22101.31404809  .00003514  00000-0  27984-3 0  9993,2 00228  48.4267 119.4293 0014772   7.1832 352.9301 15.02544752210849,6937.19,95.837,569.302,548.807,0.0
228,DELTA 1 DEB (YO),DEBRIS,2022-04-12 10:40:07,15.0255328,0.0014705,48.4266,113.8585,12.3115,347.8166,0.00027929,3.507e-05,0.0,0 DELTA 1 DEB (YO),1   228U 62002C   22102.44453048  .00003507  00000-0  27929-3 0  9998,2   228  48.4266 113.8585 0014705  12.3115 347.8166 15.02553280235146,6937.163000000001,95.837,569.229,548.827,0.0
228,DELTA 1 DEB (YO),DEBRIS,2022-04-13 07:24:58,15.02558702,0.0014715,48.4265,109.5985,16.1451,343.994,0.00024909,3.099e-05,0.0,0 DELTA 1 DEB (YO),1 00228U 62002C   22103.30901290  .00003099  00000-0  24909-3 0  9992,2 00228  48.4265 109.5985 0014715  16.1451 343.9940 15.02558702211142,6937.147,95.837,569.22,548.804,0.0
228,DELTA 1 DEB (YO),DEBRIS,2022-04-13 16:59:31,15.02560624,0.001466,48.4265,107.6322,18.03,342.1142,0.00023041,2.847e-05,0.0,0 DELTA 1 DEB (YO),1   228U 62002C   22103.70800402  .00002847  00000-0  23041-3 0  9995,2   228  48.4265 107.6322 0014660  18.0300 342.1142 15.02560624235337,6937.141,95.836,569.1759999999998,548.836,0.0
228,DELTA 1 DEB (YO),DEBRIS,2022-04-14 08:57:06,15.02563795,0.0014652,48.4264,104.3553,20.9837,339.1685,0.00021008,2.572e-05,0.0,0 DELTA 1 DEB (YO),1 00228U 62002C   22104.37298785  .00002572  00000-0  21008-3 0  9990,2 00228  48.4264 104.3553 0014652  20.9837 339.1685 15.02563795211305,6937.1309999999985,95.836,569.16,548.832,0.0
228,DELTA 1 DEB (YO),DEBRIS,2022-04-14 16:55:53,15.02566906,0.0014605,48.4265,102.7167,22.4956,337.6606,0.00024227,3.007e-05,0.0,0 DELTA 1 DEB (YO),1 00228U 62002C   22104.70547872  .00003007  00000-0  24227-3 0  9991,2 00228  48.4265 102.7167 0014605  22.4956 337.6606 15.02566906211354,6937.121,95.836,569.118,548.855,0.0
228,DELTA 1 DEB (YO),DEBRIS,2022-04-15 02:30:25,15.02570254,0.0014590999999999999,48.4266,100.7505,24.3727,335.7884,0.00025913,3.236e-05,0.0,0 DELTA 1 DEB (YO),1   228U 62002C   22105.10446682  .00003236  00000-0  25913-3 0  9990,2   228  48.4266 100.7505 0014591  24.3727 335.7884 15.02570254235545,6937.111,95.836,569.0980000000002,548.854,0.0
228,DELTA 1 DEB (YO),DEBRIS,2022-04-15 05:41:56,15.02571173,0.0014587,48.4266,100.0952,24.9779,335.1848,0.00026382,3.299e-05,0.0,0 DELTA 1 DEB (YO),1 00228U 62002C   22105.23746286  .00003299  00000-0  26382-3 0  9997,2 00228  48.4266 100.0952 0014587  24.9779 335.1848 15.02571173211439,6937.108,95.836,569.092,548.854,0.0
228,DELTA 1 DEB (YO),DEBRIS,2022-04-15 21:39:30,15.02577112,0.0014519000000000001,48.4265,96.818,27.9623,332.2079,0.00029614,3.737e-05,0.0,0 DELTA 1 DEB (YO),1 00228U 62002C   22105.90244072  .00003737  00000-0  29614-3 0  9995,2 00228  48.4265  96.8180 0014519  27.9623 332.2079 15.02577112211533,6937.09,95.835,569.0269999999998,548.883,0.0
228,DELTA 1 DEB (YO),DEBRIS,2022-04-16 08:49:48,15.02579902,0.0014524000000000002,48.4267,94.5242,30.1438,330.0319,0.00027049,3.39e-05,0.0,0 DELTA 1 DEB (YO),1   228U 62002C   22106.36792412  .00003390  00000-0  27049-3 0  9997,2   228  48.4267  94.5242 0014524  30.1438 330.0319 15.02579902235735,6937.081,95.835,569.0219999999998,548.871,0.0
228,DELTA 1 DEB (YO),DEBRIS,2022-04-16 20:00:06,15.02584126,0.0014484,48.4268,92.2302,32.25,327.9307,0.0002802,3.522e-05,0.0,0 DELTA 1 DEB (YO),1 00228U 62002C   22106.83340589  .00003522  00000-0  28020-3 0  9990,2 00228  48.4268  92.2302 0014484  32.2500 327.9307 15.02584126211679,6937.068,95.835,568.981,548.886,0.0
228,DELTA 1 DEB (YO),DEBRIS,2022-04-17 07:10:23,15.02587816,0.0014482000000000002,48.4268,89.9363,34.434,325.7519,0.00027021,3.387e-05,0.0,0 DELTA 1 DEB (YO),1 00228U 62002C   22107.29888666  .00003387  00000-0  27021-3 0  9993,2 00228  48.4268  89.9363 0014482  34.4340 325.7519 15.02587816211741,6937.057,95.835,568.9680000000002,548.876,0.0
228,DELTA 1 DEB (YO),DEBRIS,2022-04-17 15:09:10,15.0258999,0.0014478,48.427,88.2979,35.8965,324.2929,0.0002536,3.163e-05,0.0,0 DELTA 1 DEB (YO),1   228U 62002C   22107.63137241  .00003163  00000-0  25360-3 0  9993,2   228  48.4270  88.2979 0014478  35.8965 324.2929 15.02589990235922,6937.05,95.835,568.9590000000002,548.872,0.0
228,DELTA 1 DEB (YO),DEBRIS,2022-04-18 07:06:43,15.02594866,0.0014444,48.4272,85.0208,38.9773,321.219,0.00025021,3.117e-05,0.0,0 DELTA 1 DEB (YO),1 00228U 62002C   22108.29634213  .00003117  00000-0  25021-3 0  9990,2 00228  48.4272  85.0208 0014444  38.9773 321.2190 15.02594866211893,6937.035,95.834,568.92,548.88,0.0
228,DELTA 1 DEB (YO),DEBRIS,2022-04-18 15:05:30,15.02597339,0.001443,48.4274,83.3823,40.4945,319.705,0.00025099,3.128e-05,0.0,0 DELTA 1 DEB (YO),1 00228U 62002C   22108.62882621  .00003128  00000-0  25099-3 0  9992,2 00228  48.4274  83.3823 0014430  40.4945 319.7050 15.02597339211944,6937.028,95.834,568.903,548.883,0.0
228,DELTA 1 DEB (YO),DEBRIS,2022-04-19 02:15:47,15.02601283,0.00144,48.4275,81.0884,42.618,317.5859,0.00027519,3.456e-05,0.0,0 DELTA 1 DEB (YO),1   228U 62002C   22109.09430310  .00003456  00000-0  27519-3 0  9991,2   228  48.4275  81.0884 0014400  42.6180 317.5859 15.02601283236145,6937.016,95.834,568.87,548.891,0.0
228,DELTA 1 DEB (YO),DEBRIS,2022-04-19 05:27:18,15.02602741,0.001439,48.4275,80.433,43.2788,316.9264,0.00029095,3.669e-05,0.0,0 DELTA 1 DEB (YO),1 00228U 62002C   22109.22729618  .00003669  00000-0  29095-3 0  9995,2 00228  48.4275  80.4330 0014390  43.2788 316.9264 15.02602741212038,6937.0109999999995,95.834,568.8580000000002,548.894,0.0
228,DELTA 1 DEB (YO),DEBRIS,2022-04-20 02:12:07,15.02608918,0.0014337,48.4278,76.173,47.2999,312.913,0.00029819,3.768e-05,0.0,0 DELTA 1 DEB (YO),1 00228U 62002C   22110.09174989  .00003768  00000-0  29819-3 0  9991,2 00228  48.4278  76.1730 0014337  47.2999 312.9130 15.02608918212160,6936.9919999999975,95.833,568.803,548.9119999999998,0.0
228,DELTA 1 DEB (YO),DEBRIS,2022-04-20 19:45:25,15.02615143,0.0014304,48.428000000000004,72.5685,50.6434,309.5755,0.00032795,4.171e-05,0.0,0 DELTA 1 DEB (YO),1 00228U 62002C   22110.82320761  .00004171  00000-0  32795-3 0  9999,2 00228  48.4280  72.5685 0014304  50.6434 309.5755 15.02615143212273,6936.973000000001,95.833,568.761,548.915,0.0
228,DELTA 1 DEB (YO),DEBRIS,2022-04-21 03:44:11,15.02618541,0.0014297000000000001,48.4281,70.9302,52.1862,308.0354,0.00035128,4.488e-05,0.0,0 DELTA 1 DEB (YO),1 00228U 62002C   22111.15568727  .00004488  00000-0  35128-3 0  9996,2 00228  48.4281  70.9302 0014297  52.1862 308.0354 15.02618541212325,6936.9619999999995,95.833,568.745,548.91,0.0
228,DELTA 1 DEB (YO),DEBRIS,2022-04-22 03:40:29,15.02627406,0.0014275,48.4281,66.0148,56.9202,303.3091,0.00035239,4.504e-05,0.0,0 DELTA 1 DEB (YO),1 00228U 62002C   22112.15312187  .00004504  00000-0  35239-3 0  9996,2 00228  48.4281  66.0148 0014275  56.9202 303.3091 15.02627406212477,6936.935,95.83200000000001,568.703,548.898,0.0
228,DELTA 1 DEB (YO),DEBRIS,2022-04-23 13:11:18,15.0264101,0.0014246999999999999,48.4283,59.1333,63.3838,296.8544,0.00035105,4.487e-05,0.0,0 DELTA 1 DEB (YO),1 00228U 62002C   22113.54951903  .00004487  00000-0  35105-3 0  9997,2 00228  48.4283  59.1333 0014247  63.3838 296.8544 15.02641010212683,6936.893,95.831,568.641,548.875,0.0
228,DELTA 1 DEB (YO),DEBRIS,2022-04-24 13:07:35,15.02650286,0.0014224,48.4285,54.2179,68.0633,292.1802,0.00034686,4.432e-05,0.0,0 DELTA 1 DEB (YO),1 00228U 62002C   22114.54693794  .00004432  00000-0  34686-3 0  9992,2 00228  48.4285  54.2179 0014224  68.0633 292.1802 15.02650286212837,6936.865,95.831,568.597,548.863,0.0
228,DELTA 1 DEB (YO),DEBRIS,2022-04-24 21:06:20,15.02653306,0.0014212,48.4285,52.5792,69.6539,290.591,0.00034475,4.403e-05,0.0,0 DELTA 1 DEB (YO),1 00228U 62002C   22114.87940946  .00004403  00000-0  34475-3 0  9996,2 00228  48.4285  52.5792 0014212  69.6539 290.5910 15.02653306212881,6936.855,95.83,568.5790000000002,548.862,0.0
228,DELTA 1 DEB (YO),DEBRIS,2022-04-25 16:15:22,15.02661009,0.0014195,48.4286,48.6469,73.4304,286.8178,0.00035005,4.476e-05,0.0,0 DELTA 1 DEB (YO),1   228U 62002C   22115.67733813  .00004476  00000-0  35005-3 0  9998,2   228  48.4286  48.6469 0014195  73.4304 286.8178 15.02661009237130,6936.8319999999985,95.83,568.544,548.85,0.0
228,DELTA 1 DEB (YO),DEBRIS,2022-04-26 01:49:52,15.02664821,0.0014185,48.4285,46.6806,75.3877,284.8619,0.00034425,4.398e-05,0.0,0 DELTA 1 DEB (YO),1 00228U 62002C   22116.07630072  .00004398  00000-0  34425-3 0  9994,2 00228  48.4285  46.6806 0014185  75.3877 284.8619 15.02664821213066,6936.82,95.83,568.525,548.845,0.0
228,DELTA 1 DEB (YO),DEBRIS,2022-04-26 20:58:52,15.0267461,0.0014151,48.4286,42.7479,79.0372,281.2144,0.00039019,5.022e-05,0.0,0 DELTA 1 DEB (YO),1 00228U 62002C   22116.87422228  .00005022  00000-0  39019-3 0  9993,2 00228  48.4286  42.7479 0014151  79.0372 281.2144 15.02674610213188,6936.79,95.829,568.471,548.839,0.0
228,DELTA 1 DEB (YO),DEBRIS,2022-04-27 01:46:07,15.02676588,0.0014145,48.4287,41.7648,79.9278,280.3241,0.00038824,4.996e-05,0.0,0 DELTA 1 DEB (YO),1 00228U 62002C   22117.07370203  .00004996  00000-0  38824-3 0  9993,2 00228  48.4287  41.7648 0014145  79.9278 280.3241 15.02676588213211,6936.784000000002,95.829,568.461,548.837,0.0
228,DELTA 1 DEB (YO),DEBRIS,2022-04-27 19:19:22,15.02686468,0.0014119999999999998,48.4289,38.16,83.4075,276.8456,0.00044498,5.768e-05,0.0,0 DELTA 1 DEB (YO),1   228U 62002C   22117.80512466  .00005768  00000-0  44498-3 0  9995,2   228  48.4289  38.1600 0014120  83.4075 276.8456 15.02686468237457,6936.753000000002,95.82799999999999,568.413,548.8240000000002,0.0
